{"type": "FeatureCollection", "features": [ {"type": "Feature", "properties": {"norad_id": 67111, "name": "STARLINK-35875", "group": "last-30-days", "lat": 40.44899117928942, "lon": -60.622527801880544, "alt_km": 326.5802491241757, "timestamp": "2025-12-26T08:37:53.294974+00:00", "meta": {"OBJECT_NAME": "STARLINK-35875", "OBJECT_ID": "2025-299K", "EPOCH": "2025-12-26T04:00:01.998720", "MEAN_MOTION": 15.8027539, "ECCENTRICITY": 0.0001845, "INCLINATION": 42.9974, "RA_OF_ASC_NODE": 234.3521, "ARG_OF_PERICENTER": 271.61, "MEAN_ANOMALY": 141.7224, "EPHEMERIS_TYPE": 0, "CLASSIFICATION_TYPE": "U", "NORAD_CAT_ID": 67111, "ELEMENT_SET_NO": 999, "REV_AT_EPOCH": 286, "BSTAR": -0.010245, "MEAN_MOTION_DOT": -0.01755938, "MEAN_MOTION_DDOT": 0}, "tle": {"line1": "1 67111U 25299K   25360.16668980 -.01755938  00000+0 -10245-1 0  9995", "line2": "2 67111  42.9974 234.3521 0001845 271.6100 141.7224 15.80275390  2865"}}, "geometry": {"type": "Point", "coordinates": [-60.622527801880544, 40.44899117928942]}}, {"type": "Feature", "properties": {"norad_id": 67112, "name": "STARLINK-35906", "group": "last-30-days", "lat": 41.279753476271885, "lon": -56.40902142963078, "alt_km": 326.26360821393246, "timestamp": "2025-12-26T08:37:53.294984+00:00", "meta": {"OBJECT_NAME": "STARLINK-35906", "OBJECT_ID": "2025-299L", "EPOCH": "2025-12-26T04:00:01.998720", "MEAN_MOTION": 15.80298172, "ECCENTRICITY": 0.0001603, "INCLINATION": 42.9971, "RA_OF_ASC_NODE": 234.3437, "ARG_OF_PERICENTER": 271.5001, "MEAN_ANOMALY": 145.1138, "EPHEMERIS_TYPE": 0, "CLASSIFICATION_TYPE": "U", "NORAD_CAT_ID": 67112, "ELEMENT_SET_NO": 999, "REV_AT_EPOCH": 286, "BSTAR": -0.010271, "MEAN_MOTION_DOT": -0.01761291, "MEAN_MOTION_DDOT": 0}, "tle": {"line1": "1 67112U 25299L   25360.16668980 -.01761291  00000+0 -10271-1 0  9994", "line2": "2 67112  42.9971 234.3437 0001603 271.5001 145.1138 15.80298172  2865"}}, "geometry": {"type": "Point", "coordinates": [-56.40902142963078, 41.279753476271885]}}, {"type": "Feature", "properties": {"norad_id": 67113, "name": "STARLINK-35789", "group": "last-30-days", "lat": 41.63076466350057, "lon": -54.30025520970206, "alt_km": 326.29549260859585, "timestamp": "2025-12-26T08:37:53.294994+00:00", "meta": {"OBJECT_NAME": "STARLINK-35789", "OBJECT_ID": "2025-299M", "EPOCH": "2025-12-26T04:00:01.998720", "MEAN_MOTION": 15.80311445, "ECCENTRICITY": 0.0001786, "INCLINATION": 42.9969, "RA_OF_ASC_NODE": 234.3393, "ARG_OF_PERICENTER": 273.0459, "MEAN_ANOMALY": 145.1786, "EPHEMERIS_TYPE": 0, "CLASSIFICATION_TYPE": "U", "NORAD_CAT_ID": 67113, "ELEMENT_SET_NO": 999, "REV_AT_EPOCH": 286, "BSTAR": -0.010287, "MEAN_MOTION_DOT": -0.01764776, "MEAN_MOTION_DDOT": 0}, "tle": {"line1": "1 67113U 25299M   25360.16668980 -.01764776  00000+0 -10287-1 0  9993", "line2": "2 67113  42.9969 234.3393 0001786 273.0459 145.1786 15.80311445  2868"}}, "geometry": {"type": "Point", "coordinates": [-54.30025520970206, 41.63076466350057]}}, {"type": "Feature", "properties": {"norad_id": 67114, "name": "STARLINK-36180", "group": "last-30-days", "lat": 41.98091500940228, "lon": -51.887643822054365, "alt_km": 326.104863981157, "timestamp": "2025-12-26T08:37:53.295004+00:00", "meta": {"OBJECT_NAME": "STARLINK-36180", "OBJECT_ID": "2025-299N", "EPOCH": "2025-12-26T04:00:01.998720", "MEAN_MOTION": 15.80313466, "ECCENTRICITY": 0.0001552, "INCLINATION": 42.9969, "RA_OF_ASC_NODE": 234.3349, "ARG_OF_PERICENTER": 270.092, "MEAN_ANOMALY": 149.9658, "EPHEMERIS_TYPE": 0, "CLASSIFICATION_TYPE": "U", "NORAD_CAT_ID": 67114, "ELEMENT_SET_NO": 999, "REV_AT_EPOCH": 296, "BSTAR": -0.010265, "MEAN_MOTION_DOT": -0.01761394, "MEAN_MOTION_DDOT": 0}, "tle": {"line1": "1 67114U 25299N   25360.16668980 -.01761394  00000+0 -10265-1 0  9993", "line2": "2 67114  42.9969 234.3349 0001552 270.0920 149.9658 15.80313466  2967"}}, "geometry": {"type": "Point", "coordinates": [-51.887643822054365, 41.98091500940228]}}, {"type": "Feature", "properties": {"norad_id": 67115, "name": "STARLINK-35892", "group": "last-30-days", "lat": 42.250811176569506, "lon": -49.708983595701184, "alt_km": 326.0515665390967, "timestamp": "2025-12-26T08:37:53.295016+00:00", "meta": {"OBJECT_NAME": "STARLINK-35892", "OBJECT_ID": "2025-299P", "EPOCH": "2025-12-26T04:00:01.998720", "MEAN_MOTION": 15.80323321, "ECCENTRICITY": 0.0001571, "INCLINATION": 42.997, "RA_OF_ASC_NODE": 234.3308, "ARG_OF_PERICENTER": 270.6158, "MEAN_ANOMALY": 151.0745, "EPHEMERIS_TYPE": 0, "CLASSIFICATION_TYPE": "U", "NORAD_CAT_ID": 67115, "ELEMENT_SET_NO": 999, "REV_AT_EPOCH": 286, "BSTAR": -0.010255, "MEAN_MOTION_DOT": -0.01760566, "MEAN_MOTION_DDOT": 0}, "tle": {"line1": "1 67115U 25299P   25360.16668980 -.01760566  00000+0 -10255-1 0  9993", "line2": "2 67115  42.9970 234.3308 0001571 270.6158 151.0745 15.80323321  2866"}}, "geometry": {"type": "Point", "coordinates": [-49.708983595701184, 42.250811176569506]}}, {"type": "Feature", "properties": {"norad_id": 67116, "name": "STARLINK-35738", "group": "last-30-days", "lat": 42.50928989953583, "lon": -47.18530046246204, "alt_km": 326.0449968024277, "timestamp": "2025-12-26T08:37:53.295026+00:00", "meta": {"OBJECT_NAME": "STARLINK-35738", "OBJECT_ID": "2025-299Q", "EPOCH": "2025-12-26T04:00:01.998720", "MEAN_MOTION": 15.80322203, "ECCENTRICITY": 0.0001696, "INCLINATION": 42.9971, "RA_OF_ASC_NODE": 234.326, "ARG_OF_PERICENTER": 280.1905, "MEAN_ANOMALY": 143.3795, "EPHEMERIS_TYPE": 0, "CLASSIFICATION_TYPE": "U", "NORAD_CAT_ID": 67116, "ELEMENT_SET_NO": 999, "REV_AT_EPOCH": 286, "BSTAR": -0.01023, "MEAN_MOTION_DOT": -0.01756896, "MEAN_MOTION_DDOT": 0}, "tle": {"line1": "1 67116U 25299Q   25360.16668980 -.01756896  00000+0 -10230-1 0  9998", "line2": "2 67116  42.9971 234.3260 0001696 280.1905 143.3795 15.80322203  2866"}}, "geometry": {"type": "Point", "coordinates": [-47.18530046246204, 42.50928989953583]}}, {"type": "Feature", "properties": {"norad_id": 67117, "name": "STARLINK-35674", "group": "last-30-days", "lat": 42.69780120577282, "lon": -44.84750493813175, "alt_km": 326.06512012686017, "timestamp": "2025-12-26T08:37:53.295055+00:00", "meta": {"OBJECT_NAME": "STARLINK-35674", "OBJECT_ID": "2025-299R", "EPOCH": "2025-12-26T04:00:01.998720", "MEAN_MOTION": 15.80328993, "ECCENTRICITY": 0.0001731, "INCLINATION": 42.9974, "RA_OF_ASC_NODE": 234.3217, "ARG_OF_PERICENTER": 275.6288, "MEAN_ANOMALY": 149.671, "EPHEMERIS_TYPE": 0, "CLASSIFICATION_TYPE": "U", "NORAD_CAT_ID": 67117, "ELEMENT_SET_NO": 999, "REV_AT_EPOCH": 276, "BSTAR": -0.010247, "MEAN_MOTION_DOT": -0.01759919, "MEAN_MOTION_DDOT": 0}, "tle": {"line1": "1 67117U 25299R   25360.16668980 -.01759919  00000+0 -10247-1 0  9996", "line2": "2 67117  42.9974 234.3217 0001731 275.6288 149.6710 15.80328993  2762"}}, "geometry": {"type": "Point", "coordinates": [-44.84750493813175, 42.69780120577282]}}, {"type": "Feature", "properties": {"norad_id": 67118, "name": "STARLINK-35701", "group": "last-30-days", "lat": 42.84044133245047, "lon": -42.44413117557053, "alt_km": 326.00674731510753, "timestamp": "2025-12-26T08:37:53.295069+00:00", "meta": {"OBJECT_NAME": "STARLINK-35701", "OBJECT_ID": "2025-299S", "EPOCH": "2025-12-26T04:00:01.998720", "MEAN_MOTION": 15.80333364, "ECCENTRICITY": 0.0001763, "INCLINATION": 42.9972, "RA_OF_ASC_NODE": 234.3173, "ARG_OF_PERICENTER": 283.6524, "MEAN_ANOMALY": 143.4122, "EPHEMERIS_TYPE": 0, "CLASSIFICATION_TYPE": "U", "NORAD_CAT_ID": 67118, "ELEMENT_SET_NO": 999, "REV_AT_EPOCH": 291, "BSTAR": -0.010234, "MEAN_MOTION_DOT": -0.01758369, "MEAN_MOTION_DDOT": 0}, "tle": {"line1": "1 67118U 25299S   25360.16668980 -.01758369  00000+0 -10234-1 0  9991", "line2": "2 67118  42.9972 234.3173 0001763 283.6524 143.4122 15.80333364  2913"}}, "geometry": {"type": "Point", "coordinates": [-42.44413117557053, 42.84044133245047]}}, {"type": "Feature", "properties": {"norad_id": 67119, "name": "STARLINK-36179", "group": "last-30-days", "lat": 42.96522764304534, "lon": -38.43917557451252, "alt_km": 325.9280211523592, "timestamp": "2025-12-26T08:37:53.295080+00:00", "meta": {"OBJECT_NAME": "STARLINK-36179", "OBJECT_ID": "2025-299T", "EPOCH": "2025-12-26T04:00:01.998720", "MEAN_MOTION": 15.80365123, "ECCENTRICITY": 0.0001722, "INCLINATION": 42.9969, "RA_OF_ASC_NODE": 234.3095, "ARG_OF_PERICENTER": 275.7932, "MEAN_ANOMALY": 154.1907, "EPHEMERIS_TYPE": 0, "CLASSIFICATION_TYPE": "U", "NORAD_CAT_ID": 67119, "ELEMENT_SET_NO": 999, "REV_AT_EPOCH": 296, "BSTAR": -0.010198, "MEAN_MOTION_DOT": -0.01755111, "MEAN_MOTION_DDOT": 0}, "tle": {"line1": "1 67119U 25299T   25360.16668980 -.01755111  00000+0 -10198-1 0  9993", "line2": "2 67119  42.9969 234.3095 0001722 275.7932 154.1907 15.80365123  2966"}}, "geometry": {"type": "Point", "coordinates": [-38.43917557451252, 42.96522764304534]}}, {"type": "Feature", "properties": {"norad_id": 67120, "name": "STARLINK-36217", "group": "last-30-days", "lat": 42.92394623244188, "lon": -40.33160708850579, "alt_km": 326.02538744536196, "timestamp": "2025-12-26T08:37:53.295090+00:00", "meta": {"OBJECT_NAME": "STARLINK-36217", "OBJECT_ID": "2025-299U", "EPOCH": "2025-12-26T04:00:01.998720", "MEAN_MOTION": 15.80347647, "ECCENTRICITY": 0.000181, "INCLINATION": 42.9972, "RA_OF_ASC_NODE": 234.3134, "ARG_OF_PERICENTER": 279.8882, "MEAN_ANOMALY": 148.7197, "EPHEMERIS_TYPE": 0, "CLASSIFICATION_TYPE": "U", "NORAD_CAT_ID": 67120, "ELEMENT_SET_NO": 999, "REV_AT_EPOCH": 296, "BSTAR": -0.010245, "MEAN_MOTION_DOT": -0.01761082, "MEAN_MOTION_DDOT": 0}, "tle": {"line1": "1 67120U 25299U   25360.16668980 -.01761082  00000+0 -10245-1 0  9992", "line2": "2 67120  42.9972 234.3134 0001810 279.8882 148.7197 15.80347647  2964"}}, "geometry": {"type": "Point", "coordinates": [-40.33160708850579, 42.92394623244188]}}]}